{"type": "FeatureCollection", "features": [ {"type": "Feature", "properties": {"norad_id": 42969, "name": "SENTINEL-5P", "group": "resource", "lat": 60.07949962286215, "lon": 119.83050063139943, "alt_km": 820.5310036700066, "timestamp": "2025-12-11T15:53:39.199720+00:00", "meta": {"OBJECT_NAME": "SENTINEL-5P", "OBJECT_ID": "2017-064A", "EPOCH": "2025-12-11T06:52:44.049216", "MEAN_MOTION": 14.19517017, "ECCENTRICITY": 9.628e-05, "INCLINATION": 98.7783, "RA_OF_ASC_NODE": 283.8836, "ARG_OF_PERICENTER": 88.1402, "MEAN_ANOMALY": 271.9884, "EPHEMERIS_TYPE": 0, "CLASSIFICATION_TYPE": "U", "NORAD_CAT_ID": 42969, "ELEMENT_SET_NO": 999, "REV_AT_EPOCH": 42290, "BSTAR": 0.00010330656, "MEAN_MOTION_DOT": 1.74e-06, "MEAN_MOTION_DDOT": 0}, "tle": {"line1": "1 42969U 17064A   25345.28662094  .00000174  00000+0  10331-3 0  9996", "line2": "2 42969  98.7783 283.8836 0000962  88.1402 271.9884 14.19517017422904"}}, "geometry": {"type": "Point", "coordinates": [119.83050063139943, 60.07949962286215]}}, {"type": "Feature", "properties": {"norad_id": 42987, "name": "SKYSAT-C11", "group": "resource", "lat": 79.80777454704041, "lon": -10.462565370573374, "alt_km": 416.38370488476994, "timestamp": "2025-12-11T15:53:39.199730+00:00", "meta": {"OBJECT_NAME": "SKYSAT-C11", "OBJECT_ID": "2017-068A", "EPOCH": "2025-12-11T04:36:44.284608", "MEAN_MOTION": 15.4734116, "ECCENTRICITY": 9.846e-05, "INCLINATION": 97.4141, "RA_OF_ASC_NODE": 122.6453, "ARG_OF_PERICENTER": 104.9334, "MEAN_ANOMALY": 255.2025, "EPHEMERIS_TYPE": 0, "CLASSIFICATION_TYPE": "U", "NORAD_CAT_ID": 42987, "ELEMENT_SET_NO": 999, "REV_AT_EPOCH": 45407, "BSTAR": 0.00062558581, "MEAN_MOTION_DOT": 0.00031949, "MEAN_MOTION_DDOT": 0}, "tle": {"line1": "1 42987U 17068A   25345.19217922  .00031949  00000+0  62559-3 0  9999", "line2": "2 42987  97.4141 122.6453 0000984 104.9334 255.2025 15.47341160454079"}}, "geometry": {"type": "Point", "coordinates": [-10.462565370573374, 79.80777454704041]}}, {"type": "Feature", "properties": {"norad_id": 42988, "name": "SKYSAT-C10", "group": "resource", "lat": -56.41994601648143, "lon": -74.8194835860089, "alt_km": 479.2548804334101, "timestamp": "2025-12-11T15:53:39.199740+00:00", "meta": {"OBJECT_NAME": "SKYSAT-C10", "OBJECT_ID": "2017-068B", "EPOCH": "2025-12-11T07:01:30.085248", "MEAN_MOTION": 15.32015001, "ECCENTRICITY": 0.00053344, "INCLINATION": 97.4256, "RA_OF_ASC_NODE": 116.1396, "ARG_OF_PERICENTER": 107.668, "MEAN_ANOMALY": 252.5145, "EPHEMERIS_TYPE": 0, "CLASSIFICATION_TYPE": "U", "NORAD_CAT_ID": 42988, "ELEMENT_SET_NO": 999, "REV_AT_EPOCH": 45357, "BSTAR": 0.00061628253, "MEAN_MOTION_DOT": 0.00019005, "MEAN_MOTION_DDOT": 0}, "tle": {"line1": "1 42988U 17068B   25345.29270932  .00019005  00000+0  61628-3 0  9996", "line2": "2 42988  97.4256 116.1396 0005334 107.6680 252.5145 15.32015001453572"}}, "geometry": {"type": "Point", "coordinates": [-74.8194835860089, -56.41994601648143]}}, {"type": "Feature", "properties": {"norad_id": 42989, "name": "SKYSAT-C9", "group": "resource", "lat": 67.82514615411027, "lon": 97.26281193321103, "alt_km": 444.61438322347385, "timestamp": "2025-12-11T15:53:39.199750+00:00", "meta": {"OBJECT_NAME": "SKYSAT-C9", "OBJECT_ID": "2017-068C", "EPOCH": "2025-12-10T19:16:09.008256", "MEAN_MOTION": 15.35967716, "ECCENTRICITY": 0.0010648, "INCLINATION": 97.4187, "RA_OF_ASC_NODE": 115.0414, "ARG_OF_PERICENTER": 93.9134, "MEAN_ANOMALY": 266.3328, "EPHEMERIS_TYPE": 0, "CLASSIFICATION_TYPE": "U", "NORAD_CAT_ID": 42989, "ELEMENT_SET_NO": 999, "REV_AT_EPOCH": 45378, "BSTAR": 0.00053472, "MEAN_MOTION_DOT": 0.00018699, "MEAN_MOTION_DDOT": 0}, "tle": {"line1": "1 42989U 17068C   25344.80288204  .00018699  00000+0  53472-3 0  9990", "line2": "2 42989  97.4187 115.0414 0010648  93.9134 266.3328 15.35967716453781"}}, "geometry": {"type": "Point", "coordinates": [97.26281193321103, 67.82514615411027]}}, {"type": "Feature", "properties": {"norad_id": 42990, "name": "SKYSAT-C8", "group": "resource", "lat": 51.424302764926054, "lon": 106.24351589319744, "alt_km": 461.8809380541552, "timestamp": "2025-12-11T15:53:39.199761+00:00", "meta": {"OBJECT_NAME": "SKYSAT-C8", "OBJECT_ID": "2017-068D", "EPOCH": "2025-12-11T06:16:04.437408", "MEAN_MOTION": 15.32870124, "ECCENTRICITY": 0.0001682, "INCLINATION": 97.4279, "RA_OF_ASC_NODE": 115.2551, "ARG_OF_PERICENTER": 356.1506, "MEAN_ANOMALY": 3.9723, "EPHEMERIS_TYPE": 0, "CLASSIFICATION_TYPE": "U", "NORAD_CAT_ID": 42990, "ELEMENT_SET_NO": 999, "REV_AT_EPOCH": 45348, "BSTAR": 0.00064951299, "MEAN_MOTION_DOT": 0.00020574, "MEAN_MOTION_DDOT": 0}, "tle": {"line1": "1 42990U 17068D   25345.26116247  .00020574  00000+0  64951-3 0  9999", "line2": "2 42990  97.4279 115.2551 0001682 356.1506   3.9723 15.32870124453488"}}, "geometry": {"type": "Point", "coordinates": [106.24351589319744, 51.424302764926054]}}, {"type": "Feature", "properties": {"norad_id": 42991, "name": "SKYSAT-C7", "group": "resource", "lat": -82.56291900910122, "lon": -151.58355370444576, "alt_km": 480.93440152909625, "timestamp": "2025-12-11T15:53:39.199771+00:00", "meta": {"OBJECT_NAME": "SKYSAT-C7", "OBJECT_ID": "2017-068E", "EPOCH": "2025-12-11T06:53:02.056704", "MEAN_MOTION": 15.32277606, "ECCENTRICITY": 0.00077144, "INCLINATION": 97.4286, "RA_OF_ASC_NODE": 116.323, "ARG_OF_PERICENTER": 61.429, "MEAN_ANOMALY": 298.7727, "EPHEMERIS_TYPE": 0, "CLASSIFICATION_TYPE": "U", "NORAD_CAT_ID": 42991, "ELEMENT_SET_NO": 999, "REV_AT_EPOCH": 45355, "BSTAR": 0.0006281396, "MEAN_MOTION_DOT": 0.00019542, "MEAN_MOTION_DDOT": 0}, "tle": {"line1": "1 42991U 17068E   25345.28682936  .00019542  00000+0  62814-3 0  9994", "line2": "2 42991  97.4286 116.3230 0007714  61.4290 298.7727 15.32277606453553"}}, "geometry": {"type": "Point", "coordinates": [-151.58355370444576, -82.56291900910122]}}, {"type": "Feature", "properties": {"norad_id": 42992, "name": "SKYSAT-C6", "group": "resource", "lat": 29.54183344139496, "lon": 112.89634950311353, "alt_km": 468.061998844144, "timestamp": "2025-12-11T15:53:39.199781+00:00", "meta": {"OBJECT_NAME": "SKYSAT-C6", "OBJECT_ID": "2017-068F", "EPOCH": "2025-12-10T19:22:41.837088", "MEAN_MOTION": 15.3142184, "ECCENTRICITY": 0.00052036, "INCLINATION": 97.432, "RA_OF_ASC_NODE": 116.2821, "ARG_OF_PERICENTER": 87.635, "MEAN_ANOMALY": 272.5487, "EPHEMERIS_TYPE": 0, "CLASSIFICATION_TYPE": "U", "NORAD_CAT_ID": 42992, "ELEMENT_SET_NO": 999, "REV_AT_EPOCH": 45346, "BSTAR": 0.00052032995, "MEAN_MOTION_DOT": 0.00015733, "MEAN_MOTION_DDOT": 0}, "tle": {"line1": "1 42992U 17068F   25344.80742867  .00015733  00000+0  52033-3 0  9992", "line2": "2 42992  97.4320 116.2821 0005203  87.6350 272.5487 15.31421840453469"}}, "geometry": {"type": "Point", "coordinates": [112.89634950311353, 29.54183344139496]}}, {"type": "Feature", "properties": {"norad_id": 43111, "name": "CARTOSAT-2F", "group": "resource", "lat": -3.7583718060357376, "lon": -137.17444658187426, "alt_km": 511.17462741502095, "timestamp": "2025-12-11T15:53:39.199792+00:00", "meta": {"OBJECT_NAME": "CARTOSAT-2F", "OBJECT_ID": "2018-004A", "EPOCH": "2025-12-11T07:11:04.914816", "MEAN_MOTION": 15.19251334, "ECCENTRICITY": 8.899e-05, "INCLINATION": 97.4315, "RA_OF_ASC_NODE": 42.9598, "ARG_OF_PERICENTER": 145.8177, "MEAN_ANOMALY": 214.3115, "EPHEMERIS_TYPE": 0, "CLASSIFICATION_TYPE": "U", "NORAD_CAT_ID": 43111, "ELEMENT_SET_NO": 999, "REV_AT_EPOCH": 43880, "BSTAR": 0.00037908671, "MEAN_MOTION_DOT": 7.925e-05, "MEAN_MOTION_DDOT": 0}, "tle": {"line1": "1 43111U 18004A   25345.29936244  .00007925  00000+0  37909-3 0  9994", "line2": "2 43111  97.4315  42.9598 0000889 145.8177 214.3115 15.19251334438800"}}, "geometry": {"type": "Point", "coordinates": [-137.17444658187426, -3.7583718060357376]}}, {"type": "Feature", "properties": {"norad_id": 43259, "name": "GAOFEN-1 02", "group": "resource", "lat": 62.886360519478764, "lon": -120.4401901675359, "alt_km": 634.5005377527932, "timestamp": "2025-12-11T15:53:39.199802+00:00", "meta": {"OBJECT_NAME": "GAOFEN-1 02", "OBJECT_ID": "2018-031A", "EPOCH": "2025-12-11T07:14:18.748032", "MEAN_MOTION": 14.76474232, "ECCENTRICITY": 0.00015237, "INCLINATION": 98.0804, "RA_OF_ASC_NODE": 43.0903, "ARG_OF_PERICENTER": 215.5647, "MEAN_ANOMALY": 144.5462, "EPHEMERIS_TYPE": 0, "CLASSIFICATION_TYPE": "U", "NORAD_CAT_ID": 43259, "ELEMENT_SET_NO": 999, "REV_AT_EPOCH": 41497, "BSTAR": 0.00017568191, "MEAN_MOTION_DOT": 1.171e-05, "MEAN_MOTION_DDOT": 0}, "tle": {"line1": "1 43259U 18031A   25345.30160588  .00001171  00000+0  17568-3 0  9995", "line2": "2 43259  98.0804  43.0903 0001523 215.5647 144.5462 14.76474232414975"}}, "geometry": {"type": "Point", "coordinates": [-120.4401901675359, 62.886360519478764]}}, {"type": "Feature", "properties": {"norad_id": 43260, "name": "GAOFEN-1 03", "group": "resource", "lat": -50.46782407334419, "lon": -146.58400597721536, "alt_km": 647.6931371988403, "timestamp": "2025-12-11T15:53:39.199812+00:00", "meta": {"OBJECT_NAME": "GAOFEN-1 03", "OBJECT_ID": "2018-031B", "EPOCH": "2025-12-11T06:43:04.471104", "MEAN_MOTION": 14.76431768, "ECCENTRICITY": 0.0002081, "INCLINATION": 98.0801, "RA_OF_ASC_NODE": 42.9457, "ARG_OF_PERICENTER": 328.874, "MEAN_ANOMALY": 31.2346, "EPHEMERIS_TYPE": 0, "CLASSIFICATION_TYPE": "U", "NORAD_CAT_ID": 43260, "ELEMENT_SET_NO": 999, "REV_AT_EPOCH": 41496, "BSTAR": 0.00021371829, "MEAN_MOTION_DOT": 1.434e-05, "MEAN_MOTION_DDOT": 0}, "tle": {"line1": "1 43260U 18031B   25345.27991286  .00001434  00000+0  21372-3 0  9990", "line2": "2 43260  98.0801  42.9457 0002081 328.8740  31.2346 14.76431768414967"}}, "geometry": {"type": "Point", "coordinates": [-146.58400597721536, -50.46782407334419]}}]}